{
  "type": "FeatureCollection",
  "features": [
    {
      "type": "Feature",
      "properties": {
        "norad_id": 34350,
        "name": "IRIDIUM 33 DEB",
        "group": "iridium-33-debris",
        "lat": 79.98631057535995,
        "lon": 162.1055446968392,
        "alt_km": 721.1599312893795,
        "timestamp": "2025-12-11T07:02:24.115361+00:00",
        "meta_object_name": "IRIDIUM 33 DEB",
        "meta_object_id": "1997-051ES",
        "meta_epoch": "2025-12-10T12:52:02.617824",
        "meta_mean_motion": 14.45379057,
        "meta_eccentricity": 0.00226247,
        "meta_inclination": 86.3276,
        "meta_ra_of_asc_node": 3.7635,
        "meta_arg_of_pericenter": 142.0341,
        "meta_mean_anomaly": 339.995,
        "meta_ephemeris_type": 0,
        "meta_classification_type": "U",
        "meta_norad_cat_id": 34350,
        "meta_element_set_no": 999,
        "meta_rev_at_epoch": 88261,
        "meta_bstar": 0.00047544154,
        "meta_mean_motion_dot": 1.696e-05,
        "meta_mean_motion_ddot": 0,
        "tle_line1": "1 34350U 97051ES  25344.53614141  .00001696  00000+0  47544-3 0  9998",
        "tle_line2": "2 34350  86.3276   3.7635 0022624 142.0341 339.9950 14.45379057882612"
      },
      "geometry": {
        "type": "Point",
        "coordinates": [
          162.1055446968392,
          79.98631057535995
        ]
      }
    },
    {
      "type": "Feature",
      "properties": {
        "norad_id": 34366,
        "name": "IRIDIUM 33 DEB",
        "group": "iridium-33-debris",
        "lat": 22.00385032683219,
        "lon": 51.412575772080444,
        "alt_km": 720.6485549843646,
        "timestamp": "2025-12-11T07:02:24.115371+00:00",
        "meta_object_name": "IRIDIUM 33 DEB",
        "meta_object_id": "1997-051FJ",
        "meta_epoch": "2025-12-10T04:47:12.333120",
        "meta_mean_motion": 14.54021911,
        "meta_eccentricity": 0.0022308,
        "meta_inclination": 86.3691,
        "meta_ra_of_asc_node": 50.4179,
        "meta_arg_of_pericenter": 147.6537,
        "meta_mean_anomaly": 272.451,
        "meta_ephemeris_type": 0,
        "meta_classification_type": "U",
        "meta_norad_cat_id": 34366,
        "meta_element_set_no": 999,
        "meta_rev_at_epoch": 88145,
        "meta_bstar": 0.0016468,
        "meta_mean_motion_dot": 6.988e-05,
        "meta_mean_motion_ddot": 0,
        "tle_line1": "1 34366U 97051FJ  25344.19944830  .00006988  00000+0  16468-2 0  9997",
        "tle_line2": "2 34366  86.3691  50.4179 0022308 147.6537 272.4510 14.54021911881456"
      },
      "geometry": {
        "type": "Point",
        "coordinates": [
          51.412575772080444,
          22.00385032683219
        ]
      }
    },
    {
      "type": "Feature",
      "properties": {
        "norad_id": 34375,
        "name": "IRIDIUM 33 DEB",
        "group": "iridium-33-debris",
        "lat": 54.89371001827354,
        "lon": -1.8096036539675167,
        "alt_km": 753.1074661551138,
        "timestamp": "2025-12-11T07:02:24.115381+00:00",
        "meta_object_name": "IRIDIUM 33 DEB",
        "meta_object_id": "1997-051FT",
        "meta_epoch": "2025-12-10T07:35:27.786048",
        "meta_mean_motion": 14.17985501,
        "meta_eccentricity": 0.0103124,
        "meta_inclination": 86.4328,
        "meta_ra_of_asc_node": 183.6751,
        "meta_arg_of_pericenter": 134.3251,
        "meta_mean_anomaly": 46.2443,
        "meta_ephemeris_type": 0,
        "meta_classification_type": "U",
        "meta_norad_cat_id": 34375,
        "meta_element_set_no": 999,
        "meta_rev_at_epoch": 86677,
        "meta_bstar": 0.00060254,
        "meta_mean_motion_dot": 1.319e-05,
        "meta_mean_motion_ddot": 0,
        "tle_line1": "1 34375U 97051FT  25344.31629382  .00001319  00000+0  60254-3 0  9999",
        "tle_line2": "2 34375  86.4328 183.6751 0103124 134.3251  46.2443 14.17985501866774"
      },
      "geometry": {
        "type": "Point",
        "coordinates": [
          -1.8096036539675167,
          54.89371001827354
        ]
      }
    },
    {
      "type": "Feature",
      "properties": {
        "norad_id": 34376,
        "name": "IRIDIUM 33 DEB",
        "group": "iridium-33-debris",
        "lat": -84.53154832979489,
        "lon": -130.26720215009237,
        "alt_km": 693.9082035107922,
        "timestamp": "2025-12-11T07:02:24.115391+00:00",
        "meta_object_name": "IRIDIUM 33 DEB",
        "meta_object_id": "1997-051FU",
        "meta_epoch": "2025-12-10T19:58:36.016320",
        "meta_mean_motion": 14.6252204,
        "meta_eccentricity": 0.00269651,
        "meta_inclination": 86.2989,
        "meta_ra_of_asc_node": 7.3971,
        "meta_arg_of_pericenter": 173.0345,
        "meta_mean_anomaly": 187.1247,
        "meta_ephemeris_type": 0,
        "meta_classification_type": "U",
        "meta_norad_cat_id": 34376,
        "meta_element_set_no": 999,
        "meta_rev_at_epoch": 87979,
        "meta_bstar": 0.0021755564,
        "meta_mean_motion_dot": 0.00011118,
        "meta_mean_motion_ddot": 0,
        "tle_line1": "1 34376U 97051FU  25344.83236130  .00011118  00000+0  21756-2 0  9993",
        "tle_line2": "2 34376  86.2989   7.3971 0026965 173.0345 187.1247 14.62522040879791"
      },
      "geometry": {
        "type": "Point",
        "coordinates": [
          -130.26720215009237,
          -84.53154832979489
        ]
      }
    },
    {
      "type": "Feature",
      "properties": {
        "norad_id": 34486,
        "name": "IRIDIUM 33 DEB",
        "group": "iridium-33-debris",
        "lat": -50.361853072889865,
        "lon": 8.32592466530566,
        "alt_km": 596.4406766083703,
        "timestamp": "2025-12-11T07:02:24.115403+00:00",
        "meta_object_name": "IRIDIUM 33 DEB",
        "meta_object_id": "1997-051GB",
        "meta_epoch": "2025-12-10T12:34:52.076640",
        "meta_mean_motion": 14.95631974,
        "meta_eccentricity": 0.00134896,
        "meta_inclination": 86.3938,
        "meta_ra_of_asc_node": 13.0469,
        "meta_arg_of_pericenter": 119.9859,
        "meta_mean_anomaly": 11.1663,
        "meta_ephemeris_type": 0,
        "meta_classification_type": "U",
        "meta_norad_cat_id": 34486,
        "meta_element_set_no": 999,
        "meta_rev_at_epoch": 88953,
        "meta_bstar": 0.0031930379,
        "meta_mean_motion_dot": 0.00035691,
        "meta_mean_motion_ddot": 0,
        "tle_line1": "1 34486U 97051GB  25344.52421385  .00035691  00000+0  31930-2 0  9996",
        "tle_line2": "2 34486  86.3938  13.0469 0013489 119.9859  11.1663 14.95631974889534"
      },
      "geometry": {
        "type": "Point",
        "coordinates": [
          8.32592466530566,
          -50.361853072889865
        ]
      }
    },
    {
      "type": "Feature",
      "properties": {
        "norad_id": 34487,
        "name": "IRIDIUM 33 DEB",
        "group": "iridium-33-debris",
        "lat": -58.38749908762955,
        "lon": -161.03653182995345,
        "alt_km": 761.3423526205861,
        "timestamp": "2025-12-11T07:02:24.115413+00:00",
        "meta_object_name": "IRIDIUM 33 DEB",
        "meta_object_id": "1997-051GC",
        "meta_epoch": "2025-12-10T01:47:16.386144",
        "meta_mean_motion": 14.4321077,
        "meta_eccentricity": 0.00325626,
        "meta_inclination": 86.3436,
        "meta_ra_of_asc_node": 13.5248,
        "meta_arg_of_pericenter": 136.7627,
        "meta_mean_anomaly": 252.8644,
        "meta_ephemeris_type": 0,
        "meta_classification_type": "U",
        "meta_norad_cat_id": 34487,
        "meta_element_set_no": 999,
        "meta_rev_at_epoch": 88210,
        "meta_bstar": 0.00027422216,
        "meta_mean_motion_dot": 9.48e-06,
        "meta_mean_motion_ddot": 0,
        "tle_line1": "1 34487U 97051GC  25344.07449521  .00000948  00000+0  27422-3 0  9998",
        "tle_line2": "2 34487  86.3436  13.5248 0032562 136.7627 252.8644 14.43210770882100"
      },
      "geometry": {
        "type": "Point",
        "coordinates": [
          -161.03653182995345,
          -58.38749908762955
        ]
      }
    },
    {
      "type": "Feature",
      "properties": {
        "norad_id": 34488,
        "name": "IRIDIUM 33 DEB",
        "group": "iridium-33-debris",
        "lat": 60.31873215536357,
        "lon": 120.05544492159703,
        "alt_km": 469.85966974651274,
        "timestamp": "2025-12-11T07:02:24.115424+00:00",
        "meta_object_name": "IRIDIUM 33 DEB",
        "meta_object_id": "1997-051GD",
        "meta_epoch": "2025-12-10T14:48:36.945792",
        "meta_mean_motion": 15.28578771,
        "meta_eccentricity": 0.0013801,
        "meta_inclination": 86.3253,
        "meta_ra_of_asc_node": 306.8644,
        "meta_arg_of_pericenter": 55.1759,
        "meta_mean_anomaly": 305.0785,
        "meta_ephemeris_type": 0,
        "meta_classification_type": "U",
        "meta_norad_cat_id": 34488,
        "meta_element_set_no": 999,
        "meta_rev_at_epoch": 89207,
        "meta_bstar": 0.0066252,
        "meta_mean_motion_dot": 0.00188937,
        "meta_mean_motion_ddot": 0,
        "tle_line1": "1 34488U 97051GD  25344.61709428  .00188937  00000+0  66252-2 0  9992",
        "tle_line2": "2 34488  86.3253 306.8644 0013801  55.1759 305.0785 15.28578771892077"
      },
      "geometry": {
        "type": "Point",
        "coordinates": [
          120.05544492159703,
          60.31873215536357
        ]
      }
    }
  ]
}